[{"OBJECT_NAME":"SITRO-AIS 18","OBJECT_ID":"2024-199BH","EPOCH":"2026-03-09T22:56:51.354816","MEAN_MOTION":14.97350577,"ECCENTRICITY":0.00069154,"INCLINATION":97.331,"RA_OF_ASC_NODE":274.6581,"ARG_OF_PERICENTER":53.7115,"MEAN_ANOMALY":306.4746,"EPHEMERIS_TYPE":0,"CLASSIFICATION_TYPE":"U","NORAD_CAT_ID":61790,"ELEMENT_SET_NO":999,"REV_AT_EPOCH":11718,"BSTAR":0.00032194999,"MEAN_MOTION_DOT":3.687e-5,"MEAN_MOTION_DDOT":0},{"OBJECT_NAME":"LEMUR-2-BALTO","OBJECT_ID":"2025-052BH","EPOCH":"2026-03-09T16:40:42.002112","MEAN_MOTION":14.98934076,"ECCENTRICITY":0.00022794,"INCLINATION":97.6978,"RA_OF_ASC_NODE":323.5166,"ARG_OF_PERICENTER":359.2852,"MEAN_ANOMALY":0.8367,"EPHEMERIS_TYPE":0,"CLASSIFICATION_TYPE":"U","NORAD_CAT_ID":63395,"ELEMENT_SET_NO":999,"REV_AT_EPOCH":5385,"BSTAR":0.00063455958,"MEAN_MOTION_DOT":7.621e-5,"MEAN_MOTION_DDOT":0}]
